SAUDISAT 1C (SO-50)     
1 27607U 02058C   26166.13232462  .00000901  00000+0  12359-3 0  9993
2 27607  64.5510 135.3431 0075311 262.8571  96.3968 14.83043109264155
SAUDISAT 2              
1 28371U 04025F   26165.96828208  .00000223  00000+0  60845-4 0  9998
2 28371  98.5507 165.8928 0023677 305.3890  54.5095 14.56682813165429
SAUDISAT 3              
1 31118U 07012B   26166.15061922  .00000212  00000+0  42403-4 0  9992
2 31118  98.1456 116.5498 0013527 230.7744 129.2262 14.71424528 27447
PISAT                   
1 41784U 16059B   26165.96430915  .00000754  00000+0  13601-3 0  9991
2 41784  97.8179 166.5126 0028188 210.0908 149.8680 14.68980131519418
FLYING LAPTOP           
1 42831U 17042G   26166.18578683  .00002857  00000+0  22668-3 0  9997
2 42831  97.4673 321.7954 0019559 128.3139 231.9848 15.01133413486154
SALSAT                  
1 46495U 20068K   26165.98698010  .00006897  00000+0  24187-3 0  9999
2 46495  97.8843 168.9175 0008203 317.5916  42.4688 15.29772719315024
